CCSDS_OMM_VERS = 2.0
CREATION_DATE  = 
ORIGINATOR     = 

OBJECT_NAME    = ATLAS CENTAUR 2
OBJECT_ID      = 1963-047A
CENTER_NAME    = EARTH
REF_FRAME      = TEME
TIME_SYSTEM    = UTC
MEAN_ELEMENT_THEORY = SGP/SGP4

EPOCH          = 2025-12-10T05:58:31.089216
MEAN_MOTION    = 14.11738051
ECCENTRICITY   = .05489809
INCLINATION    = 30.3558
RA_OF_ASC_NODE = 335.3709
ARG_OF_PERICENTER = 12.2288
MEAN_ANOMALY   = 349.1064

EPHEMERIS_TYPE = 0
CLASSIFICATION_TYPE = U
NORAD_CAT_ID   = 694
ELEMENT_SET_NO = 999
REV_AT_EPOCH   = 11897
BSTAR          = .53926656E-3
MEAN_MOTION_DOT = .4471E-4
MEAN_MOTION_DDOT = 0

CCSDS_OMM_VERS = 2.0
CREATION_DATE  = 
ORIGINATOR     = 

OBJECT_NAME    = THOR AGENA D R/B
OBJECT_ID      = 1964-002A
CENTER_NAME    = EARTH
REF_FRAME      = TEME
TIME_SYSTEM    = UTC
MEAN_ELEMENT_THEORY = SGP/SGP4

EPOCH          = 2025-12-09T19:00:08.667936
MEAN_MOTION    = 14.33956977
ECCENTRICITY   = .00332254
INCLINATION    = 99.1217
RA_OF_ASC_NODE = 347.2511
ARG_OF_PERICENTER = 158.6934
MEAN_ANOMALY   = 201.5641

EPHEMERIS_TYPE = 0
CLASSIFICATION_TYPE = U
NORAD_CAT_ID   = 733
ELEMENT_SET_NO = 999
REV_AT_EPOCH   = 22541
BSTAR          = .16576783E-3
MEAN_MOTION_DOT = .417E-5
MEAN_MOTION_DDOT = 0

CCSDS_OMM_VERS = 2.0
CREATION_DATE  = 
ORIGINATOR     = 

OBJECT_NAME    = SL-3 R/B
OBJECT_ID      = 1964-053B
CENTER_NAME    = EARTH
REF_FRAME      = TEME
TIME_SYSTEM    = UTC
MEAN_ELEMENT_THEORY = SGP/SGP4

EPOCH          = 2025-12-10T00:57:50.759712
MEAN_MOTION    = 14.61272073
ECCENTRICITY   = .00736399
INCLINATION    = 65.0768
RA_OF_ASC_NODE = 234.0465
ARG_OF_PERICENTER = 321.2453
MEAN_ANOMALY   = 38.3377

EPHEMERIS_TYPE = 0
CLASSIFICATION_TYPE = U
NORAD_CAT_ID   = 877
ELEMENT_SET_NO = 999
REV_AT_EPOCH   = 25369
BSTAR          = .12944851E-3
MEAN_MOTION_DOT = .54E-5
MEAN_MOTION_DDOT = 0

CCSDS_OMM_VERS = 2.0
CREATION_DATE  = 
ORIGINATOR     = 

OBJECT_NAME    = SL-8 R/B
OBJECT_ID      = 1967-045B
CENTER_NAME    = EARTH
REF_FRAME      = TEME
TIME_SYSTEM    = UTC
MEAN_ELEMENT_THEORY = SGP/SGP4

EPOCH          = 2025-12-09T17:56:37.064544
MEAN_MOTION    = 14.45532252
ECCENTRICITY   = .00644527
INCLINATION    = 74.0096
RA_OF_ASC_NODE = 156.0499
ARG_OF_PERICENTER = 186.0858
MEAN_ANOMALY   = 173.9525

EPHEMERIS_TYPE = 0
CLASSIFICATION_TYPE = U
NORAD_CAT_ID   = 2802
ELEMENT_SET_NO = 999
REV_AT_EPOCH   = 7602
BSTAR          = .20588066E-3
MEAN_MOTION_DOT = .717E-5
MEAN_MOTION_DDOT = 0

CCSDS_OMM_VERS = 2.0
CREATION_DATE  = 
ORIGINATOR     = 

OBJECT_NAME    = SL-8 R/B
OBJECT_ID      = 1968-040B
CENTER_NAME    = EARTH
REF_FRAME      = TEME
TIME_SYSTEM    = UTC
MEAN_ELEMENT_THEORY = SGP/SGP4

EPOCH          = 2025-12-10T04:14:32.759520
MEAN_MOTION    = 15.02494960
ECCENTRICITY   = .00253114
INCLINATION    = 74.0303
RA_OF_ASC_NODE = 136.4900
ARG_OF_PERICENTER = 338.5091
MEAN_ANOMALY   = 21.5031

EPHEMERIS_TYPE = 0
CLASSIFICATION_TYPE = U
NORAD_CAT_ID   = 3230
ELEMENT_SET_NO = 999
REV_AT_EPOCH   = 7656
BSTAR          = .41643186E-3
MEAN_MOTION_DOT = .5529E-4
MEAN_MOTION_DDOT = 0

CCSDS_OMM_VERS = 2.0
CREATION_DATE  = 
ORIGINATOR     = 

OBJECT_NAME    = OAO 2
OBJECT_ID      = 1968-110A
CENTER_NAME    = EARTH
REF_FRAME      = TEME
TIME_SYSTEM    = UTC
MEAN_ELEMENT_THEORY = SGP/SGP4

EPOCH          = 2025-12-10T07:18:04.168224
MEAN_MOTION    = 14.47242050
ECCENTRICITY   = .00057286
INCLINATION    = 34.9944
RA_OF_ASC_NODE = 44.2556
ARG_OF_PERICENTER = 206.0767
MEAN_ANOMALY   = 153.9636

EPHEMERIS_TYPE = 0
CLASSIFICATION_TYPE = U
NORAD_CAT_ID   = 3597
ELEMENT_SET_NO = 999
REV_AT_EPOCH   = 614
BSTAR          = .14434189E-3
MEAN_MOTION_DOT = .516E-5
MEAN_MOTION_DDOT = 0

CCSDS_OMM_VERS = 2.0
CREATION_DATE  = 
ORIGINATOR     = 

OBJECT_NAME    = ISIS 1
OBJECT_ID      = 1969-009A
CENTER_NAME    = EARTH
REF_FRAME      = TEME
TIME_SYSTEM    = UTC
MEAN_ELEMENT_THEORY = SGP/SGP4

EPOCH          = 2025-12-10T05:27:32.106816
MEAN_MOTION    = 11.30352814
ECCENTRICITY   = .17068568
INCLINATION    = 88.4485
RA_OF_ASC_NODE = 165.0713
ARG_OF_PERICENTER = 269.7754
MEAN_ANOMALY   = 70.8551

EPHEMERIS_TYPE = 0
CLASSIFICATION_TYPE = U
NORAD_CAT_ID   = 3669
ELEMENT_SET_NO = 999
REV_AT_EPOCH   = 33842
BSTAR          = .23568398E-3
MEAN_MOTION_DOT = .324E-5
MEAN_MOTION_DDOT = 0

CCSDS_OMM_VERS = 2.0
CREATION_DATE  = 
ORIGINATOR     = 

OBJECT_NAME    = SERT 2
OBJECT_ID      = 1970-009A
CENTER_NAME    = EARTH
REF_FRAME      = TEME
TIME_SYSTEM    = UTC
MEAN_ELEMENT_THEORY = SGP/SGP4

EPOCH          = 2025-12-10T07:44:02.541696
MEAN_MOTION    = 13.58717117
ECCENTRICITY   = .00054783
INCLINATION    = 99.2646
RA_OF_ASC_NODE = 287.3577
ARG_OF_PERICENTER = 39.9446
MEAN_ANOMALY   = 113.8260

EPHEMERIS_TYPE = 0
CLASSIFICATION_TYPE = U
NORAD_CAT_ID   = 4327
ELEMENT_SET_NO = 999
REV_AT_EPOCH   = 76775
BSTAR          = .14402673E-3
MEAN_MOTION_DOT = .64E-6
MEAN_MOTION_DDOT = 0

CCSDS_OMM_VERS = 2.0
CREATION_DATE  = 
ORIGINATOR     = 

OBJECT_NAME    = SL-3 R/B
OBJECT_ID      = 1971-028B
CENTER_NAME    = EARTH
REF_FRAME      = TEME
TIME_SYSTEM    = UTC
MEAN_ELEMENT_THEORY = SGP/SGP4

EPOCH          = 2025-12-10T05:30:09.618336
MEAN_MOTION    = 15.54230586
ECCENTRICITY   = .00193506
INCLINATION    = 81.2375
RA_OF_ASC_NODE = 161.9179
ARG_OF_PERICENTER = 249.5699
MEAN_ANOMALY   = 110.3473

EPHEMERIS_TYPE = 0
CLASSIFICATION_TYPE = U
NORAD_CAT_ID   = 5118
ELEMENT_SET_NO = 999
REV_AT_EPOCH   = 97474
BSTAR          = .58230894E-3
MEAN_MOTION_DOT = .38415E-3
MEAN_MOTION_DDOT = 0

CCSDS_OMM_VERS = 2.0
CREATION_DATE  = 
ORIGINATOR     = 

OBJECT_NAME    = ASTEX 1
OBJECT_ID      = 1971-089A
CENTER_NAME    = EARTH
REF_FRAME      = TEME
TIME_SYSTEM    = UTC
MEAN_ELEMENT_THEORY = SGP/SGP4

EPOCH          = 2025-12-10T06:58:35.831136
MEAN_MOTION    = 14.50637966
ECCENTRICITY   = .00167094
INCLINATION    = 92.7136
RA_OF_ASC_NODE = 122.8266
ARG_OF_PERICENTER = 33.6327
MEAN_ANOMALY   = 326.5936

EPHEMERIS_TYPE = 0
CLASSIFICATION_TYPE = U
NORAD_CAT_ID   = 5560
ELEMENT_SET_NO = 999
REV_AT_EPOCH   = 84934
BSTAR          = .2353175E-3
MEAN_MOTION_DOT = .923E-5
MEAN_MOTION_DDOT = 0

CCSDS_OMM_VERS = 2.0
CREATION_DATE  = 
ORIGINATOR     = 

OBJECT_NAME    = SL-8 R/B
OBJECT_ID      = 1971-119B
CENTER_NAME    = EARTH
REF_FRAME      = TEME
TIME_SYSTEM    = UTC
MEAN_ELEMENT_THEORY = SGP/SGP4

EPOCH          = 2025-12-10T07:37:39.432864
MEAN_MOTION    = 14.35639326
ECCENTRICITY   = .05596331
INCLINATION    = 73.8889
RA_OF_ASC_NODE = 342.5059
ARG_OF_PERICENTER = 327.2588
MEAN_ANOMALY   = 29.4989

EPHEMERIS_TYPE = 0
CLASSIFICATION_TYPE = U
NORAD_CAT_ID   = 5730
ELEMENT_SET_NO = 999
REV_AT_EPOCH   = 64265
BSTAR          = .95633472E-3
MEAN_MOTION_DOT = .18354E-3
MEAN_MOTION_DDOT = 0

CCSDS_OMM_VERS = 2.0
CREATION_DATE  = 
ORIGINATOR     = 

OBJECT_NAME    = OAO 3 (COPERNICUS)
OBJECT_ID      = 1972-065A
CENTER_NAME    = EARTH
REF_FRAME      = TEME
TIME_SYSTEM    = UTC
MEAN_ELEMENT_THEORY = SGP/SGP4

EPOCH          = 2025-12-10T08:16:12.971712
MEAN_MOTION    = 14.59903276
ECCENTRICITY   = .00062313
INCLINATION    = 35.0057
RA_OF_ASC_NODE = 86.3093
ARG_OF_PERICENTER = 154.2961
MEAN_ANOMALY   = 229.0859

EPHEMERIS_TYPE = 0
CLASSIFICATION_TYPE = U
NORAD_CAT_ID   = 6153
ELEMENT_SET_NO = 999
REV_AT_EPOCH   = 83313
BSTAR          = .15329107E-3
MEAN_MOTION_DOT = .724E-5
MEAN_MOTION_DDOT = 0

