ATLAS CENTAUR 2         
1 00694U 63047A   25344.24897094  .00004471  00000+0  53927-3 0  9994
2 00694  30.3558 335.3709 0548980  12.2288 349.1064 14.11738051118976
THOR AGENA D R/B        
1 00733U 64002A   25343.79176699  .00000417  00000+0  16577-3 0  9996
2 00733  99.1217 347.2511 0033225 158.6934 201.5641 14.33956977225415
SL-3 R/B                
1 00877U 64053B   25344.04017083  .00000540  00000+0  12945-3 0  9993
2 00877  65.0768 234.0465 0073639 321.2453  38.3377 14.61272073253697
SL-8 R/B                
1 02802U 67045B   25343.74765121  .00000717  00000+0  20588-3 0  9994
2 02802  74.0096 156.0499 0064452 186.0858 173.9525 14.45532252 76021
SL-8 R/B                
1 03230U 68040B   25344.17676805  .00005529  00000+0  41643-3 0  9995
2 03230  74.0303 136.4900 0025311 338.5091  21.5031 15.02494960 76567
OAO 2                   
1 03597U 68110A   25344.30421491  .00000516  00000+0  14434-3 0  9992
2 03597  34.9944  44.2556 0005728 206.0767 153.9636 14.47242050  6148
ISIS 1                  
1 03669U 69009A   25344.22745494  .00000324  00000+0  23568-3 0  9998
2 03669  88.4485 165.0713 1706856 269.7754  70.8551 11.30352814338423
SERT 2                  
1 04327U 70009A   25344.32225164  .00000064  00000+0  14403-3 0  9999
2 04327  99.2646 287.3577 0005478  39.9446 113.8260 13.58717117767756
SL-3 R/B                
1 05118U 71028B   25344.22927799  .00038415  00000+0  58231-3 0  9990
2 05118  81.2375 161.9179 0019350 249.5699 110.3473 15.54230586974748
ASTEX 1                 
1 05560U 71089A   25344.29069249  .00000923  00000+0  23532-3 0  9991
2 05560  92.7136 122.8266 0016709  33.6327 326.5936 14.50637966849349
SL-8 R/B                
1 05730U 71119B   25344.31781751  .00018354  00000+0  95633-3 0  9994
2 05730  73.8889 342.5059 0559633 327.2588  29.4989 14.35639326642650
OAO 3 (COPERNICUS)      
1 06153U 72065A   25344.34459458  .00000724  00000+0  15329-3 0  9990
2 06153  35.0057  86.3093 0006231 154.2961 229.0859 14.59903276833135
